{"type": "FeatureCollection", "features": [ {"type": "Feature", "properties": {"norad_id": 41836, "name": "HIMAWARI-9", "group": "weather", "lat": -0.030834946845857875, "lon": -165.63943997986118, "alt_km": 35788.61916014711, "timestamp": "2025-12-03T22:42:32.302350+00:00", "meta": {"OBJECT_NAME": "HIMAWARI-9", "OBJECT_ID": "2016-064A", "EPOCH": "2025-12-02T23:00:58.348224", "MEAN_MOTION": 1.0027266, "ECCENTRICITY": 0.00024178, "INCLINATION": 0.0194, "RA_OF_ASC_NODE": 335.8786, "ARG_OF_PERICENTER": 323.9867, "MEAN_ANOMALY": 258.1785, "EPHEMERIS_TYPE": 0, "CLASSIFICATION_TYPE": "U", "NORAD_CAT_ID": 41836, "ELEMENT_SET_NO": 999, "REV_AT_EPOCH": 3324, "BSTAR": 0, "MEAN_MOTION_DOT": 0, "MEAN_MOTION_DDOT": 0}, "tle": {"line1": "1 41836U 16064A   25336.95900866  .00000000  00000+0  00000+0 0  9999", "line2": "2 41836   0.0194 335.8786 0002417 323.9867 258.1785  1.00272660 33242"}}, "geometry": {"type": "Point", "coordinates": [-165.63943997986118, -0.030834946845857875]}}, {"type": "Feature", "properties": {"norad_id": 41866, "name": "GOES 16", "group": "weather", "lat": -0.034559446307593236, "lon": -51.00252536883227, "alt_km": 35777.52704217117, "timestamp": "2025-12-03T22:42:32.302362+00:00", "meta": {"OBJECT_NAME": "GOES 16", "OBJECT_ID": "2016-071A", "EPOCH": "2025-12-03T12:08:21.600384", "MEAN_MOTION": 1.00270581, "ECCENTRICITY": 0.0003423, "INCLINATION": 0.0594, "RA_OF_ASC_NODE": 106.3408, "ARG_OF_PERICENTER": 150.5537, "MEAN_ANOMALY": 253.1186, "EPHEMERIS_TYPE": 0, "CLASSIFICATION_TYPE": "U", "NORAD_CAT_ID": 41866, "ELEMENT_SET_NO": 999, "REV_AT_EPOCH": 3314, "BSTAR": 0, "MEAN_MOTION_DOT": -7.3e-07, "MEAN_MOTION_DDOT": 0}, "tle": {"line1": "1 41866U 16071A   25337.50580556 -.00000073  00000+0  00000+0 0  9993", "line2": "2 41866   0.0594 106.3408 0003423 150.5537 253.1186  1.00270581 33146"}}, "geometry": {"type": "Point", "coordinates": [-51.00252536883227, -0.034559446307593236]}}, {"type": "Feature", "properties": {"norad_id": 41882, "name": "FENGYUN 4A", "group": "weather", "lat": 1.8035395064292667, "lon": 177.3414845872133, "alt_km": 35769.67540635175, "timestamp": "2025-12-03T22:42:32.302372+00:00", "meta": {"OBJECT_NAME": "FENGYUN 4A", "OBJECT_ID": "2016-077A", "EPOCH": "2025-12-03T10:55:14.513376", "MEAN_MOTION": 1.00278173, "ECCENTRICITY": 0.0005038, "INCLINATION": 1.8238, "RA_OF_ASC_NODE": 82.48, "ARG_OF_PERICENTER": 141.9211, "MEAN_ANOMALY": 135.6813, "EPHEMERIS_TYPE": 0, "CLASSIFICATION_TYPE": "U", "NORAD_CAT_ID": 41882, "ELEMENT_SET_NO": 999, "REV_AT_EPOCH": 3296, "BSTAR": 0, "MEAN_MOTION_DOT": -3.39e-06, "MEAN_MOTION_DDOT": 0}, "tle": {"line1": "1 41882U 16077A   25337.45502909 -.00000339  00000+0  00000+0 0  9992", "line2": "2 41882   1.8238  82.4800 0005038 141.9211 135.6813  1.00278173 32960"}}, "geometry": {"type": "Point", "coordinates": [177.3414845872133, 1.8035395064292667]}}, {"type": "Feature", "properties": {"norad_id": 41884, "name": "CYGFM05", "group": "weather", "lat": -33.48001635911265, "lon": -4.239541101406903, "alt_km": 433.01010741083064, "timestamp": "2025-12-03T22:42:32.302383+00:00", "meta": {"OBJECT_NAME": "CYGFM05", "OBJECT_ID": "2016-078A", "EPOCH": "2025-12-03T10:46:29.713728", "MEAN_MOTION": 15.47102869, "ECCENTRICITY": 0.0009436, "INCLINATION": 34.9579, "RA_OF_ASC_NODE": 107.7956, "ARG_OF_PERICENTER": 93.9258, "MEAN_ANOMALY": 266.2542, "EPHEMERIS_TYPE": 0, "CLASSIFICATION_TYPE": "U", "NORAD_CAT_ID": 41884, "ELEMENT_SET_NO": 999, "REV_AT_EPOCH": 49832, "BSTAR": 0.00048563, "MEAN_MOTION_DOT": 0.00025434, "MEAN_MOTION_DDOT": 0}, "tle": {"line1": "1 41884U 16078A   25337.44895502  .00025434  00000+0  48563-3 0  9990", "line2": "2 41884  34.9579 107.7956 0009436  93.9258 266.2542 15.47102869498323"}}, "geometry": {"type": "Point", "coordinates": [-4.239541101406903, -33.48001635911265]}}, {"type": "Feature", "properties": {"norad_id": 41885, "name": "CYGFM04", "group": "weather", "lat": 25.17789977100649, "lon": 121.91266119884186, "alt_km": 411.48738637909355, "timestamp": "2025-12-03T22:42:32.302392+00:00", "meta": {"OBJECT_NAME": "CYGFM04", "OBJECT_ID": "2016-078B", "EPOCH": "2025-12-03T10:08:06.281088", "MEAN_MOTION": 15.49773185, "ECCENTRICITY": 0.0008472, "INCLINATION": 34.9344, "RA_OF_ASC_NODE": 83.0107, "ARG_OF_PERICENTER": 124.6637, "MEAN_ANOMALY": 235.4884, "EPHEMERIS_TYPE": 0, "CLASSIFICATION_TYPE": "U", "NORAD_CAT_ID": 41885, "ELEMENT_SET_NO": 999, "REV_AT_EPOCH": 49849, "BSTAR": 0.001011, "MEAN_MOTION_DOT": 0.0005844, "MEAN_MOTION_DDOT": 0}, "tle": {"line1": "1 41885U 16078B   25337.42229492  .00058440  00000+0  10110-2 0  9997", "line2": "2 41885  34.9344  83.0107 0008472 124.6637 235.4884 15.49773185498492"}}, "geometry": {"type": "Point", "coordinates": [121.91266119884186, 25.17789977100649]}}, {"type": "Feature", "properties": {"norad_id": 41886, "name": "CYGFM02", "group": "weather", "lat": 10.036708770070065, "lon": 92.6995112074913, "alt_km": 413.3306613016857, "timestamp": "2025-12-03T22:42:32.302402+00:00", "meta": {"OBJECT_NAME": "CYGFM02", "OBJECT_ID": "2016-078C", "EPOCH": "2025-12-03T10:16:32.221344", "MEAN_MOTION": 15.51099847, "ECCENTRICITY": 0.0010218, "INCLINATION": 34.943, "RA_OF_ASC_NODE": 81.4183, "ARG_OF_PERICENTER": 123.4037, "MEAN_ANOMALY": 236.7664, "EPHEMERIS_TYPE": 0, "CLASSIFICATION_TYPE": "U", "NORAD_CAT_ID": 41886, "ELEMENT_SET_NO": 999, "REV_AT_EPOCH": 49862, "BSTAR": 0.0005033, "MEAN_MOTION_DOT": 0.0003039, "MEAN_MOTION_DDOT": 0}, "tle": {"line1": "1 41886U 16078C   25337.42815071  .00030390  00000+0  50330-3 0  9995", "line2": "2 41886  34.9430  81.4183 0010218 123.4037 236.7664 15.51099847498621"}}, "geometry": {"type": "Point", "coordinates": [92.6995112074913, 10.036708770070065]}}, {"type": "Feature", "properties": {"norad_id": 41887, "name": "CYGFM01", "group": "weather", "lat": -34.278811160648516, "lon": 29.46564199260514, "alt_km": 431.5944168138685, "timestamp": "2025-12-03T22:42:32.302412+00:00", "meta": {"OBJECT_NAME": "CYGFM01", "OBJECT_ID": "2016-078D", "EPOCH": "2025-12-03T12:12:56.259072", "MEAN_MOTION": 15.47669639, "ECCENTRICITY": 0.0009043, "INCLINATION": 34.9409, "RA_OF_ASC_NODE": 109.818, "ARG_OF_PERICENTER": 85.8716, "MEAN_ANOMALY": 274.3039, "EPHEMERIS_TYPE": 0, "CLASSIFICATION_TYPE": "U", "NORAD_CAT_ID": 41887, "ELEMENT_SET_NO": 999, "REV_AT_EPOCH": 49827, "BSTAR": 0.00049412, "MEAN_MOTION_DOT": 0.00026397, "MEAN_MOTION_DDOT": 0}, "tle": {"line1": "1 41887U 16078D   25337.50898448  .00026397  00000+0  49412-3 0  9995", "line2": "2 41887  34.9409 109.8180 0009043  85.8716 274.3039 15.47669639498271"}}, "geometry": {"type": "Point", "coordinates": [29.46564199260514, -34.278811160648516]}}, {"type": "Feature", "properties": {"norad_id": 41888, "name": "CYGFM08", "group": "weather", "lat": -32.34685064662209, "lon": 24.962882646416983, "alt_km": 429.214772733535, "timestamp": "2025-12-03T22:42:32.302421+00:00", "meta": {"OBJECT_NAME": "CYGFM08", "OBJECT_ID": "2016-078E", "EPOCH": "2025-12-03T10:37:53.516928", "MEAN_MOTION": 15.48843081, "ECCENTRICITY": 0.0010695, "INCLINATION": 34.9448, "RA_OF_ASC_NODE": 93.3476, "ARG_OF_PERICENTER": 111.7091, "MEAN_ANOMALY": 248.4771, "EPHEMERIS_TYPE": 0, "CLASSIFICATION_TYPE": "U", "NORAD_CAT_ID": 41888, "ELEMENT_SET_NO": 999, "REV_AT_EPOCH": 49849, "BSTAR": 0.00050658, "MEAN_MOTION_DOT": 0.00028227, "MEAN_MOTION_DDOT": 0}, "tle": {"line1": "1 41888U 16078E   25337.44298052  .00028227  00000+0  50658-3 0  9992", "line2": "2 41888  34.9448  93.3476 0010695 111.7091 248.4771 15.48843081498495"}}, "geometry": {"type": "Point", "coordinates": [24.962882646416983, -32.34685064662209]}}, {"type": "Feature", "properties": {"norad_id": 41890, "name": "CYGFM07", "group": "weather", "lat": -34.3652781057808, "lon": -22.61434754689295, "alt_km": 423.9929794388063, "timestamp": "2025-12-03T22:42:32.302432+00:00", "meta": {"OBJECT_NAME": "CYGFM07", "OBJECT_ID": "2016-078G", "EPOCH": "2025-12-03T09:13:15.178080", "MEAN_MOTION": 15.49410837, "ECCENTRICITY": 0.0008979, "INCLINATION": 34.947, "RA_OF_ASC_NODE": 82.7659, "ARG_OF_PERICENTER": 129.2524, "MEAN_ANOMALY": 230.8996, "EPHEMERIS_TYPE": 0, "CLASSIFICATION_TYPE": "U", "NORAD_CAT_ID": 41890, "ELEMENT_SET_NO": 999, "REV_AT_EPOCH": 49850, "BSTAR": 0.0004951, "MEAN_MOTION_DOT": 0.00028126, "MEAN_MOTION_DDOT": 0}, "tle": {"line1": "1 41890U 16078G   25337.38420345  .00028126  00000+0  49510-3 0  9993", "line2": "2 41890  34.9470  82.7659 0008979 129.2524 230.8996 15.49410837498501"}}, "geometry": {"type": "Point", "coordinates": [-22.61434754689295, -34.3652781057808]}}, {"type": "Feature", "properties": {"norad_id": 41891, "name": "CYGFM03", "group": "weather", "lat": 34.52755945447306, "lon": -179.18580759063735, "alt_km": 407.0647641311716, "timestamp": "2025-12-03T22:42:32.302442+00:00", "meta": {"OBJECT_NAME": "CYGFM03", "OBJECT_ID": "2016-078H", "EPOCH": "2025-12-03T11:27:47.341728", "MEAN_MOTION": 15.49320837, "ECCENTRICITY": 0.0008312, "INCLINATION": 34.9425, "RA_OF_ASC_NODE": 84.066, "ARG_OF_PERICENTER": 116.9629, "MEAN_ANOMALY": 243.1943, "EPHEMERIS_TYPE": 0, "CLASSIFICATION_TYPE": "U", "NORAD_CAT_ID": 41891, "ELEMENT_SET_NO": 999, "REV_AT_EPOCH": 49849, "BSTAR": 0.00050884, "MEAN_MOTION_DOT": 0.00028812, "MEAN_MOTION_DDOT": 0}, "tle": {"line1": "1 41891U 16078H   25337.47763127  .00028812  00000+0  50884-3 0  9990", "line2": "2 41891  34.9425  84.0660 0008312 116.9629 243.1943 15.49320837498496"}}, "geometry": {"type": "Point", "coordinates": [-179.18580759063735, 34.52755945447306]}}]}